{"type": "FeatureCollection", "features": [ {"type": "Feature", "properties": {"norad_id": 66936, "name": "STARLINK-36160", "group": "last-30-days", "lat": -37.42509695310353, "lon": -104.28206720512489, "alt_km": 297.33005627580405, "timestamp": "2025-12-14T16:47:39.439661+00:00", "meta": {"OBJECT_NAME": "STARLINK-36160", "OBJECT_ID": "2025-286M", "EPOCH": "2025-12-13T20:00:03.000384", "MEAN_MOTION": 15.95682803, "ECCENTRICITY": 6.695e-05, "INCLINATION": 53.1573, "RA_OF_ASC_NODE": 45.1342, "ARG_OF_PERICENTER": 73.2871, "MEAN_ANOMALY": 219.6522, "EPHEMERIS_TYPE": 0, "CLASSIFICATION_TYPE": "U", "NORAD_CAT_ID": 66936, "ELEMENT_SET_NO": 999, "REV_AT_EPOCH": 216, "BSTAR": -0.0032494622, "MEAN_MOTION_DOT": -0.01339207, "MEAN_MOTION_DDOT": 0.00053960645}, "tle": {"line1": "1 66936U 25286M   25347.83336806 -.01339207  53961-3 -32495-2 0  9990", "line2": "2 66936  53.1573  45.1342 0000669  73.2871 219.6522 15.95682803  2167"}}, "geometry": {"type": "Point", "coordinates": [-104.28206720512489, -37.42509695310353]}}, {"type": "Feature", "properties": {"norad_id": 66937, "name": "STARLINK-36165", "group": "last-30-days", "lat": -38.495992260036, "lon": -102.6927736256353, "alt_km": 297.3707659495303, "timestamp": "2025-12-14T16:47:39.439673+00:00", "meta": {"OBJECT_NAME": "STARLINK-36165", "OBJECT_ID": "2025-286N", "EPOCH": "2025-12-13T20:00:03.000384", "MEAN_MOTION": 15.95753967, "ECCENTRICITY": 8.835e-05, "INCLINATION": 53.1573, "RA_OF_ASC_NODE": 45.1309, "ARG_OF_PERICENTER": 62.6749, "MEAN_ANOMALY": 231.6969, "EPHEMERIS_TYPE": 0, "CLASSIFICATION_TYPE": "U", "NORAD_CAT_ID": 66937, "ELEMENT_SET_NO": 999, "REV_AT_EPOCH": 216, "BSTAR": -0.0032375238, "MEAN_MOTION_DOT": -0.01339465, "MEAN_MOTION_DDOT": 0.00054018701}, "tle": {"line1": "1 66937U 25286N   25347.83336806 -.01339465  54019-3 -32375-2 0  9999", "line2": "2 66937  53.1573  45.1309 0000883  62.6749 231.6969 15.95753967  2164"}}, "geometry": {"type": "Point", "coordinates": [-102.6927736256353, -38.495992260036]}}, {"type": "Feature", "properties": {"norad_id": 66938, "name": "STARLINK-36155", "group": "last-30-days", "lat": -39.555032904156214, "lon": -101.0387624728495, "alt_km": 297.0613220665655, "timestamp": "2025-12-14T16:47:39.439683+00:00", "meta": {"OBJECT_NAME": "STARLINK-36155", "OBJECT_ID": "2025-286P", "EPOCH": "2025-12-13T20:00:03.000384", "MEAN_MOTION": 15.95826541, "ECCENTRICITY": 6.799e-05, "INCLINATION": 53.1571, "RA_OF_ASC_NODE": 45.1278, "ARG_OF_PERICENTER": 68.5704, "MEAN_ANOMALY": 227.2422, "EPHEMERIS_TYPE": 0, "CLASSIFICATION_TYPE": "U", "NORAD_CAT_ID": 66938, "ELEMENT_SET_NO": 999, "REV_AT_EPOCH": 216, "BSTAR": -0.0032229568, "MEAN_MOTION_DOT": -0.01338687, "MEAN_MOTION_DDOT": 0.00054001468}, "tle": {"line1": "1 66938U 25286P   25347.83336806 -.01338687  54001-3 -32230-2 0  9996", "line2": "2 66938  53.1571  45.1278 0000679  68.5704 227.2422 15.95826541  2161"}}, "geometry": {"type": "Point", "coordinates": [-101.0387624728495, -39.555032904156214]}}, {"type": "Feature", "properties": {"norad_id": 66939, "name": "STARLINK-36154", "group": "last-30-days", "lat": -41.757021694118286, "lon": -97.29116689808902, "alt_km": 296.8661816467529, "timestamp": "2025-12-14T16:47:39.439693+00:00", "meta": {"OBJECT_NAME": "STARLINK-36154", "OBJECT_ID": "2025-286Q", "EPOCH": "2025-12-13T20:00:03.000384", "MEAN_MOTION": 15.9599778, "ECCENTRICITY": 7.872e-05, "INCLINATION": 53.1571, "RA_OF_ASC_NODE": 45.1213, "ARG_OF_PERICENTER": 65.3549, "MEAN_ANOMALY": 233.5854, "EPHEMERIS_TYPE": 0, "CLASSIFICATION_TYPE": "U", "NORAD_CAT_ID": 66939, "ELEMENT_SET_NO": 999, "REV_AT_EPOCH": 216, "BSTAR": -0.0032467792, "MEAN_MOTION_DOT": -0.01360923, "MEAN_MOTION_DDOT": 0.00055745914}, "tle": {"line1": "1 66939U 25286Q   25347.83336806 -.01360923  55746-3 -32468-2 0  9995", "line2": "2 66939  53.1571  45.1213 0000787  65.3549 233.5854 15.95997780  2166"}}, "geometry": {"type": "Point", "coordinates": [-97.29116689808902, -41.757021694118286]}}, {"type": "Feature", "properties": {"norad_id": 66940, "name": "STARLINK-36121", "group": "last-30-days", "lat": -42.701431252849126, "lon": -95.53087597284696, "alt_km": 296.57601922939193, "timestamp": "2025-12-14T16:47:39.439706+00:00", "meta": {"OBJECT_NAME": "STARLINK-36121", "OBJECT_ID": "2025-286R", "EPOCH": "2025-12-13T20:00:03.000384", "MEAN_MOTION": 15.96063023, "ECCENTRICITY": 6.469e-05, "INCLINATION": 53.1569, "RA_OF_ASC_NODE": 45.1183, "ARG_OF_PERICENTER": 62.0194, "MEAN_ANOMALY": 238.3025, "EPHEMERIS_TYPE": 0, "CLASSIFICATION_TYPE": "U", "NORAD_CAT_ID": 66940, "ELEMENT_SET_NO": 999, "REV_AT_EPOCH": 216, "BSTAR": -0.0032070212, "MEAN_MOTION_DOT": -0.01349172, "MEAN_MOTION_DDOT": 0.00054907599}, "tle": {"line1": "1 66940U 25286R   25347.83336806 -.01349172  54908-3 -32070-2 0  9998", "line2": "2 66940  53.1569  45.1183 0000646  62.0194 238.3025 15.96063023  2163"}}, "geometry": {"type": "Point", "coordinates": [-95.53087597284696, -42.701431252849126]}}, {"type": "Feature", "properties": {"norad_id": 66941, "name": "STARLINK-36088", "group": "last-30-days", "lat": -40.74332572065634, "lon": -99.0729760170871, "alt_km": 297.0252750770469, "timestamp": "2025-12-14T16:47:39.439716+00:00", "meta": {"OBJECT_NAME": "STARLINK-36088", "OBJECT_ID": "2025-286S", "EPOCH": "2025-12-13T20:00:03.000384", "MEAN_MOTION": 15.95922396, "ECCENTRICITY": 7.935e-05, "INCLINATION": 53.1569, "RA_OF_ASC_NODE": 45.1241, "ARG_OF_PERICENTER": 66.9692, "MEAN_ANOMALY": 230.5179, "EPHEMERIS_TYPE": 0, "CLASSIFICATION_TYPE": "U", "NORAD_CAT_ID": 66941, "ELEMENT_SET_NO": 999, "REV_AT_EPOCH": 216, "BSTAR": -0.0032567479, "MEAN_MOTION_DOT": -0.01359536, "MEAN_MOTION_DDOT": 0.00055599452}, "tle": {"line1": "1 66941U 25286S   25347.83336806 -.01359536  55599-3 -32567-2 0  9992", "line2": "2 66941  53.1569  45.1241 0000793  66.9692 230.5179 15.95922396  2168"}}, "geometry": {"type": "Point", "coordinates": [-99.0729760170871, -40.74332572065634]}}, {"type": "Feature", "properties": {"norad_id": 66942, "name": "STARLINK-36100", "group": "last-30-days", "lat": -43.65669885529041, "lon": -93.63776200992253, "alt_km": 296.3380237930087, "timestamp": "2025-12-14T16:47:39.439726+00:00", "meta": {"OBJECT_NAME": "STARLINK-36100", "OBJECT_ID": "2025-286T", "EPOCH": "2025-12-13T20:00:03.000384", "MEAN_MOTION": 15.96138635, "ECCENTRICITY": 5.5e-05, "INCLINATION": 53.1568, "RA_OF_ASC_NODE": 45.1153, "ARG_OF_PERICENTER": 62.8007, "MEAN_ANOMALY": 238.9712, "EPHEMERIS_TYPE": 0, "CLASSIFICATION_TYPE": "U", "NORAD_CAT_ID": 66942, "ELEMENT_SET_NO": 999, "REV_AT_EPOCH": 209, "BSTAR": -0.0031962175, "MEAN_MOTION_DOT": -0.01350155, "MEAN_MOTION_DDOT": 0.00055023208}, "tle": {"line1": "1 66942U 25286T   25347.83336806 -.01350155  55023-3 -31962-2 0  9991", "line2": "2 66942  53.1568  45.1153 0000550  62.8007 238.9712 15.96138635  2099"}}, "geometry": {"type": "Point", "coordinates": [-93.63776200992253, -43.65669885529041]}}, {"type": "Feature", "properties": {"norad_id": 66943, "name": "STARLINK-36109", "group": "last-30-days", "lat": -44.741852263625, "lon": -91.32693219625357, "alt_km": 296.1980836927587, "timestamp": "2025-12-14T16:47:39.439736+00:00", "meta": {"OBJECT_NAME": "STARLINK-36109", "OBJECT_ID": "2025-286U", "EPOCH": "2025-12-13T20:00:03.000384", "MEAN_MOTION": 15.9623233, "ECCENTRICITY": 6.091e-05, "INCLINATION": 53.1567, "RA_OF_ASC_NODE": 45.1117, "ARG_OF_PERICENTER": 73.9939, "MEAN_ANOMALY": 229.4997, "EPHEMERIS_TYPE": 0, "CLASSIFICATION_TYPE": "U", "NORAD_CAT_ID": 66943, "ELEMENT_SET_NO": 999, "REV_AT_EPOCH": 209, "BSTAR": -0.0032081023, "MEAN_MOTION_DOT": -0.01361973, "MEAN_MOTION_DDOT": 0.00055958666}, "tle": {"line1": "1 66943U 25286U   25347.83336806 -.01361973  55959-3 -32081-2 0  9993", "line2": "2 66943  53.1567  45.1117 0000609  73.9939 229.4997 15.96232330  2098"}}, "geometry": {"type": "Point", "coordinates": [-91.32693219625357, -44.741852263625]}}, {"type": "Feature", "properties": {"norad_id": 66944, "name": "STARLINK-36112", "group": "last-30-days", "lat": -45.562725188760865, "lon": -89.44599475049277, "alt_km": 296.3479537750327, "timestamp": "2025-12-14T16:47:39.439748+00:00", "meta": {"OBJECT_NAME": "STARLINK-36112", "OBJECT_ID": "2025-286V", "EPOCH": "2025-12-13T20:00:03.000384", "MEAN_MOTION": 15.96307465, "ECCENTRICITY": 9.6e-05, "INCLINATION": 53.1567, "RA_OF_ASC_NODE": 45.1087, "ARG_OF_PERICENTER": 63.3495, "MEAN_ANOMALY": 241.5157, "EPHEMERIS_TYPE": 0, "CLASSIFICATION_TYPE": "U", "NORAD_CAT_ID": 66944, "ELEMENT_SET_NO": 999, "REV_AT_EPOCH": 216, "BSTAR": -0.0032324234, "MEAN_MOTION_DOT": -0.01377778, "MEAN_MOTION_DDOT": 0.00057193366}, "tle": {"line1": "1 66944U 25286V   25347.83336806 -.01377778  57193-3 -32324-2 0  9996", "line2": "2 66944  53.1567  45.1087 0000960  63.3495 241.5157 15.96307465  2168"}}, "geometry": {"type": "Point", "coordinates": [-89.44599475049277, -45.562725188760865]}}, {"type": "Feature", "properties": {"norad_id": 66945, "name": "STARLINK-36110", "group": "last-30-days", "lat": -46.5404251852784, "lon": -87.02600320427582, "alt_km": 296.0655215060533, "timestamp": "2025-12-14T16:47:39.439760+00:00", "meta": {"OBJECT_NAME": "STARLINK-36110", "OBJECT_ID": "2025-286W", "EPOCH": "2025-12-13T20:00:03.000384", "MEAN_MOTION": 15.96397183, "ECCENTRICITY": 8.481e-05, "INCLINATION": 53.1566, "RA_OF_ASC_NODE": 45.1051, "ARG_OF_PERICENTER": 63.1671, "MEAN_ANOMALY": 243.3763, "EPHEMERIS_TYPE": 0, "CLASSIFICATION_TYPE": "U", "NORAD_CAT_ID": 66945, "ELEMENT_SET_NO": 999, "REV_AT_EPOCH": 216, "BSTAR": -0.0032249566, "MEAN_MOTION_DOT": -0.01381291, "MEAN_MOTION_DDOT": 0.00057512794}, "tle": {"line1": "1 66945U 25286W   25347.83336806 -.01381291  57513-3 -32250-2 0  9996", "line2": "2 66945  53.1566  45.1051 0000848  63.1671 243.3763 15.96397183  2167"}}, "geometry": {"type": "Point", "coordinates": [-87.02600320427582, -46.5404251852784]}}]}